start=new Date('2022-10-21T00:00:00.000Z').valueOf();
sats=[{"OBJECT_ID":"2021-082N","ECCENTRICITY":"0.00031390","REV_AT_EPOCH":"6184","NORAD_CAT_ID":"49142","TLE_LINE2":"2 49142  69.9977 130.5591 0003139 253.7001 106.3813 14.98338346 61847","MEAN_ANOMALY":"106.3813","REF_FRAME":"TEME","RCS_SIZE":"LARGE","RA_OF_ASC_NODE":"130.5591","CLASSIFICATION_TYPE":"U","SEMIMAJOR_AXIS":"6950.167","EPOCH":"2022-10-20T19:21:27.997056","ARG_OF_PERICENTER":"253.7001","COUNTRY_CODE":"US","TIME_SYSTEM":"UTC","LAUNCH_DATE":"2021-09-14","EPHEMERIS_TYPE":"0","BSTAR":"0.00019239000000","PERIOD":"96.106","MEAN_ELEMENT_THEORY":"SGP4","DECAY_DATE":null,"OBJECT_NAME":"STARLINK-3042","ELEMENT_SET_NO":"999","MEAN_MOTION":"14.98338346","MEAN_MOTION_DDOT":"0.0000000000000","INCLINATION":"69.9977","MEAN_MOTION_DOT":"0.00002204","FILE":"3626396","SITE":"AFWTR","TLE_LINE1":"1 49142U 21082N   22293.80657404  .00002204  00000-0  19239-3 0  9990","OBJECT_TYPE":"PAYLOAD","GP_ID":"215725502","CENTER_NAME":"EARTH","PERIAPSIS":"569.850","APOAPSIS":"574.214"},{"OBJECT_TYPE":"PAYLOAD","TLE_LINE1":"1 49143U 21082P   22293.01365499  .00003431  00000-0  29507-3 0  9996","SITE":"AFWTR","FILE":"3625892","CENTER_NAME":"EARTH","GP_ID":"215690259","APOAPSIS":"574.680","PERIAPSIS":"569.339","ELEMENT_SET_NO":"999","MEAN_MOTION":"14.98345650","MEAN_MOTION_DDOT":"0.0000000000000","INCLINATION":"69.9982","MEAN_MOTION_DOT":"0.00003431","COUNTRY_CODE":"US","LAUNCH_DATE":"2021-09-14","TIME_SYSTEM":"UTC","DECAY_DATE":null,"OBJECT_NAME":"STARLINK-3109","MEAN_ELEMENT_THEORY":"SGP4","PERIOD":"96.106","EPHEMERIS_TYPE":"0","BSTAR":"0.00029507000000","REV_AT_EPOCH":"6234","ECCENTRICITY":"0.00038430","OBJECT_ID":"2021-082P","MEAN_ANOMALY":"126.7231","TLE_LINE2":"2 49143  69.9982 152.5454 0003843 233.3575 126.7231 14.98345650 62340","NORAD_CAT_ID":"49143","CLASSIFICATION_TYPE":"U","RA_OF_ASC_NODE":"152.5454","RCS_SIZE":"LARGE","REF_FRAME":"TEME","EPOCH":"2022-10-20T00:19:39.791136","ARG_OF_PERICENTER":"233.3575","SEMIMAJOR_AXIS":"6950.144"},{"ECCENTRICITY":"0.00032790","REV_AT_EPOCH":"6076","OBJECT_ID":"2021-082Q","TLE_LINE2":"2 49144  70.0012 172.1543 0003279 253.9631 106.1167 14.98340493 60763","NORAD_CAT_ID":"49144","MEAN_ANOMALY":"106.1167","CLASSIFICATION_TYPE":"U","RA_OF_ASC_NODE":"172.1543","RCS_SIZE":"LARGE","REF_FRAME":"TEME","ARG_OF_PERICENTER":"253.9631","EPOCH":"2022-10-20T04:11:14.027424","SEMIMAJOR_AXIS":"6950.160","COUNTRY_CODE":"US","TIME_SYSTEM":"UTC","LAUNCH_DATE":"2021-09-14","PERIOD":"96.106","MEAN_ELEMENT_THEORY":"SGP4","DECAY_DATE":null,"OBJECT_NAME":"STARLINK-3100","BSTAR":"0.00036065000000","EPHEMERIS_TYPE":"0","ELEMENT_SET_NO":"999","MEAN_MOTION":"14.98340493","MEAN_MOTION_DDOT":"0.0000000000000","INCLINATION":"70.0012","MEAN_MOTION_DOT":"0.00004214","OBJECT_TYPE":"PAYLOAD","TLE_LINE1":"1 49144U 21082Q   22293.17446791  .00004214  00000-0  36065-3 0  9996","FILE":"3625892","SITE":"AFWTR","GP_ID":"215690773","CENTER_NAME":"EARTH","PERIAPSIS":"569.746","APOAPSIS":"574.304"},{"MEAN_MOTION_DOT":"-0.00006932","MEAN_MOTION_DDOT":"0.0000000000000","INCLINATION":"70.0029","MEAN_MOTION":"14.98337873","ELEMENT_SET_NO":"999","APOAPSIS":"573.451","PERIAPSIS":"570.616","GP_ID":"215691023","CENTER_NAME":"EARTH","FILE":"3625892","SITE":"AFWTR","TLE_LINE1":"1 49145U 21082R   22293.25816646 -.00006932  00000-0 -57367-3 0  9995","OBJECT_TYPE":"PAYLOAD","SEMIMAJOR_AXIS":"6950.169","EPOCH":"2022-10-20T06:11:45.582144","ARG_OF_PERICENTER":"270.6198","REF_FRAME":"TEME","RCS_SIZE":"LARGE","CLASSIFICATION_TYPE":"U","RA_OF_ASC_NODE":"131.9371","NORAD_CAT_ID":"49145","TLE_LINE2":"2 49145  70.0029 131.9371 0002040 270.6198  89.4727 14.98337873 61756","MEAN_ANOMALY":"89.4727","OBJECT_ID":"2021-082R","ECCENTRICITY":"0.00020400","REV_AT_EPOCH":"6175","BSTAR":"-0.00057367000000","EPHEMERIS_TYPE":"0","PERIOD":"96.106","MEAN_ELEMENT_THEORY":"SGP4","DECAY_DATE":null,"OBJECT_NAME":"STARLINK-3119","TIME_SYSTEM":"UTC","LAUNCH_DATE":"2021-09-14","COUNTRY_CODE":"US"},{"MEAN_MOTION":"14.98341627","ELEMENT_SET_NO":"999","MEAN_MOTION_DOT":"0.00001915","INCLINATION":"70.0011","MEAN_MOTION_DDOT":"0.0000000000000","CENTER_NAME":"EARTH","GP_ID":"215726002","OBJECT_TYPE":"PAYLOAD","TLE_LINE1":"1 49146U 21082S   22293.87675244  .00001915  00000-0  16823-3 0  9997","SITE":"AFWTR","FILE":"3626396","APOAPSIS":"574.249","PERIAPSIS":"569.794","MEAN_ANOMALY":"107.5052","NORAD_CAT_ID":"49146","TLE_LINE2":"2 49146  70.0011 150.3839 0003205 252.5756 107.5052 14.98341627 62515","REV_AT_EPOCH":"6251","ECCENTRICITY":"0.00032050","OBJECT_ID":"2021-082S","EPOCH":"2022-10-20T21:02:31.410816","ARG_OF_PERICENTER":"252.5756","SEMIMAJOR_AXIS":"6950.157","CLASSIFICATION_TYPE":"U","RA_OF_ASC_NODE":"150.3839","RCS_SIZE":"LARGE","REF_FRAME":"TEME","COUNTRY_CODE":"US","OBJECT_NAME":"STARLINK-3116","DECAY_DATE":null,"MEAN_ELEMENT_THEORY":"SGP4","PERIOD":"96.106","BSTAR":"0.00016823000000","EPHEMERIS_TYPE":"0","LAUNCH_DATE":"2021-09-14","TIME_SYSTEM":"UTC"},{"REF_FRAME":"TEME","RCS_SIZE":"LARGE","CLASSIFICATION_TYPE":"U","RA_OF_ASC_NODE":"130.5724","SEMIMAJOR_AXIS":"6950.127","ARG_OF_PERICENTER":"263.1854","EPOCH":"2022-10-20T19:14:32.159904","OBJECT_ID":"2021-082T","REV_AT_EPOCH":"6184","ECCENTRICITY":"0.00021500","MEAN_ANOMALY":"96.9060","NORAD_CAT_ID":"49147","TLE_LINE2":"2 49147  69.9979 130.5724 0002150 263.1854  96.9060 14.98351383 61849","LAUNCH_DATE":"2021-09-14","TIME_SYSTEM":"UTC","EPHEMERIS_TYPE":"0","BSTAR":"0.00010905000000","OBJECT_NAME":"STARLINK-3071","DECAY_DATE":null,"MEAN_ELEMENT_THEORY":"SGP4","PERIOD":"96.106","COUNTRY_CODE":"US","MEAN_MOTION_DDOT":"0.0000000000000","INCLINATION":"69.9979","MEAN_MOTION_DOT":"0.00001209","ELEMENT_SET_NO":"999","MEAN_MOTION":"14.98351383","PERIAPSIS":"570.497","APOAPSIS":"573.486","SITE":"AFWTR","FILE":"3626396","OBJECT_TYPE":"PAYLOAD","TLE_LINE1":"1 49147U 21082T   22293.80176111  .00001209  00000-0  10905-3 0  9991","CENTER_NAME":"EARTH","GP_ID":"215725753"},{"PERIAPSIS":"570.011","APOAPSIS":"574.079","OBJECT_TYPE":"PAYLOAD","TLE_LINE1":"1 49148U 21082U   22293.87199100  .00001158  00000-0  10486-3 0  9999","FILE":"3626396","SITE":"AFWTR","GP_ID":"215727003","CENTER_NAME":"EARTH","INCLINATION":"69.9981","MEAN_MOTION_DDOT":"0.0000000000000","MEAN_MOTION_DOT":"0.00001158","ELEMENT_SET_NO":"999","MEAN_MOTION":"14.98334157","TIME_SYSTEM":"UTC","LAUNCH_DATE":"2021-09-14","MEAN_ELEMENT_THEORY":"SGP4","PERIOD":"96.107","OBJECT_NAME":"STARLINK-3048","DECAY_DATE":null,"EPHEMERIS_TYPE":"0","BSTAR":"0.00010486000000","COUNTRY_CODE":"US","RA_OF_ASC_NODE":"150.3849","CLASSIFICATION_TYPE":"U","REF_FRAME":"TEME","RCS_SIZE":"LARGE","ARG_OF_PERICENTER":"255.0849","EPOCH":"2022-10-20T20:55:40.022400","SEMIMAJOR_AXIS":"6950.180","ECCENTRICITY":"0.00029260","REV_AT_EPOCH":"6135","OBJECT_ID":"2021-082U","NORAD_CAT_ID":"49148","TLE_LINE2":"2 49148  69.9981 150.3849 0002926 255.0849 104.9987 14.98334157 61350","MEAN_ANOMALY":"104.9987"},{"APOAPSIS":"574.291","PERIAPSIS":"569.795","OBJECT_TYPE":"PAYLOAD","TLE_LINE1":"1 49149U 21082V   22293.63700874  .00001370  00000-0  12261-3 0  9999","SITE":"AFWTR","FILE":"3626396","GP_ID":"215725984","CENTER_NAME":"EARTH","INCLINATION":"70.0010","MEAN_MOTION_DDOT":"0.0000000000000","MEAN_MOTION_DOT":"0.00001370","ELEMENT_SET_NO":"999","MEAN_MOTION":"14.98334799","LAUNCH_DATE":"2021-09-14","TIME_SYSTEM":"UTC","OBJECT_NAME":"STARLINK-3053","DECAY_DATE":null,"PERIOD":"96.107","MEAN_ELEMENT_THEORY":"SGP4","EPHEMERIS_TYPE":"0","BSTAR":"0.00012261000000","COUNTRY_CODE":"US","RA_OF_ASC_NODE":"170.9859","CLASSIFICATION_TYPE":"U","REF_FRAME":"TEME","RCS_SIZE":"LARGE","EPOCH":"2022-10-20T15:17:17.555136","ARG_OF_PERICENTER":"253.6049","SEMIMAJOR_AXIS":"6950.178","REV_AT_EPOCH":"6202","ECCENTRICITY":"0.00032350","OBJECT_ID":"2021-082V","MEAN_ANOMALY":"106.4755","TLE_LINE2":"2 49149  70.0010 170.9859 0003235 253.6049 106.4755 14.98334799 62023","NORAD_CAT_ID":"49149"},{"OBJECT_ID":"2021-082W","ECCENTRICITY":"0.00029680","REV_AT_EPOCH":"6198","NORAD_CAT_ID":"49150","TLE_LINE2":"2 49150  70.0002 171.6693 0002968 249.7753 110.3087 14.98335377 61989","MEAN_ANOMALY":"110.3087","RCS_SIZE":"LARGE","REF_FRAME":"TEME","CLASSIFICATION_TYPE":"U","RA_OF_ASC_NODE":"171.6693","SEMIMAJOR_AXIS":"6950.176","ARG_OF_PERICENTER":"249.7753","EPOCH":"2022-10-20T08:45:54.211392","COUNTRY_CODE":"US","TIME_SYSTEM":"UTC","LAUNCH_DATE":"2021-09-14","EPHEMERIS_TYPE":"0","BSTAR":"0.00001341600000","PERIOD":"96.107","MEAN_ELEMENT_THEORY":"SGP4","DECAY_DATE":null,"OBJECT_NAME":"STARLINK-3104","ELEMENT_SET_NO":"999","MEAN_MOTION":"14.98335377","MEAN_MOTION_DDOT":"0.0000000000000","INCLINATION":"70.0002","MEAN_MOTION_DOT":"0.00000067","FILE":"3625892","SITE":"AFWTR","OBJECT_TYPE":"PAYLOAD","TLE_LINE1":"1 49150U 21082W   22293.36521078  .00000067  00000-0  13416-4 0  9994","CENTER_NAME":"EARTH","GP_ID":"215691775","PERIAPSIS":"569.978","APOAPSIS":"574.104"},{"TIME_SYSTEM":"UTC","LAUNCH_DATE":"2021-09-14","BSTAR":"-0.00004527900000","EPHEMERIS_TYPE":"0","MEAN_ELEMENT_THEORY":"SGP4","PERIOD":"96.107","OBJECT_NAME":"STARLINK-3102","DECAY_DATE":null,"COUNTRY_CODE":"US","REF_FRAME":"TEME","RCS_SIZE":"LARGE","RA_OF_ASC_NODE":"130.4453","CLASSIFICATION_TYPE":"U","SEMIMAJOR_AXIS":"6950.188","ARG_OF_PERICENTER":"248.7618","EPOCH":"2022-10-20T20:23:14.771328","OBJECT_ID":"2021-082X","ECCENTRICITY":"0.00031850","REV_AT_EPOCH":"6305","TLE_LINE2":"2 49151  69.9973 130.4453 0003185 248.7618 111.3201 14.98331440 63058","NORAD_CAT_ID":"49151","MEAN_ANOMALY":"111.3201","PERIAPSIS":"569.840","APOAPSIS":"574.267","FILE":"3625952","SITE":"AFWTR","TLE_LINE1":"1 49151U 21082X   22293.84947652 -.00000633  00000-0 -45279-4 0  9991","OBJECT_TYPE":"PAYLOAD","GP_ID":"215693651","CENTER_NAME":"EARTH","MEAN_MOTION_DDOT":"0.0000000000000","INCLINATION":"69.9973","MEAN_MOTION_DOT":"-0.00000633","ELEMENT_SET_NO":"999","MEAN_MOTION":"14.98331440"}];
